{
    "links": {
        "self": "http://www.neowsapp.com/rest/v1/neo/3779522?api_key=iIulBulltgU6a56xZRHN4H3l9WmuAYTsLGpBGhQ2"
    },
    "id": "3779522",
    "neo_reference_id": "3779522",
    "name": "(2017 PW24)",
    "designation": "2017 PW24",
    "nasa_jpl_url": "http://ssd.jpl.nasa.gov/sbdb.cgi?sstr=3779522",
    "absolute_magnitude_h": 22.2,
    "estimated_diameter": {
        "kilometers": {
            "estimated_diameter_min": 0.096506147,
            "estimated_diameter_max": 0.2157943048
        },
        "meters": {
            "estimated_diameter_min": 96.5061469579,
            "estimated_diameter_max": 215.7943048444
        },
        "miles": {
            "estimated_diameter_min": 0.059966121,
            "estimated_diameter_max": 0.134088323
        },
        "feet": {
            "estimated_diameter_min": 316.6212271853,
            "estimated_diameter_max": 707.9865871058
        }
    },
    "is_potentially_hazardous_asteroid": false,
    "close_approach_data": [
        {
            "close_approach_date": "2017-08-07",
            "close_approach_date_full": "2017-Aug-07 01:31",
            "epoch_date_close_approach": 1502069460000,
            "relative_velocity": {
                "kilometers_per_second": "26.6089615827",
                "kilometers_per_hour": "95792.2616976912",
                "miles_per_hour": "59521.5861643237"
            },
            "miss_distance": {
                "astronomical": "0.3035344003",
                "lunar": "118.0748817167",
                "kilometers": "45408099.756607361",
                "miles": "28215284.8286131418"
            },
            "orbiting_body": "Earth"
        }
    ],
    "orbital_data": {
        "orbit_id": "1",
        "orbit_determination_date": "2017-08-10 08:42:04",
        "first_observation_date": "2017-08-03",
        "last_observation_date": "2017-08-10",
        "data_arc_in_days": 7,
        "observations_used": 15,
        "orbit_uncertainty": "9",
        "minimum_orbit_intersection": ".294172",
        "jupiter_tisserand_invariant": "3.549",
        "epoch_osculation": "2457971.5",
        "eccentricity": ".2998016555560701",
        "semi_major_axis": "1.812219124214482",
        "inclination": "52.99599778644287",
        "ascending_node_longitude": "314.1905748850221",
        "orbital_period": "891.0754746843012",
        "perihelion_distance": "1.268912830544609",
        "perihelion_argument": "30.99990629417761",
        "aphelion_distance": "2.355525417884355",
        "perihelion_time": "2458005.409781585523",
        "mean_anomaly": "346.3002386244406",
        "mean_motion": ".4040061815499347",
        "equinox": "J2000",
        "orbit_class": {
            "orbit_class_type": "AMO",
            "orbit_class_description": "Near-Earth asteroid orbits similar to that of 1221 Amor",
            "orbit_class_range": "1.017 AU < q (perihelion) < 1.3 AU"
        }
    },
    "is_sentry_object": false
}